OBJECT_NAME,OBJECT_ID,EPOCH,MEAN_MOTION,ECCENTRICITY,INCLINATION,RA_OF_ASC_NODE,ARG_OF_PERICENTER,MEAN_ANOMALY,EPHEMERIS_TYPE,CLASSIFICATION_TYPE,NORAD_CAT_ID,ELEMENT_SET_NO,REV_AT_EPOCH,BSTAR,MEAN_MOTION_DOT,MEAN_MOTION_DDOT
STARLINK-37898,2026-147B,2026-07-22T20:00:01.999872,15.61308654,.000159,97.2849,240.6093,97.8750,166.2005,0,U,69705,999,496,-.33586431E-1,-.2484144E-1,0
STARLINK-37970,2026-147C,2026-07-22T20:00:01.999872,15.60853812,.000166,97.2851,240.6077,96.7806,162.8987,0,U,69706,999,496,-.33140181E-1,-.2417979E-1,0
STARLINK-37975,2026-147D,2026-07-22T20:00:01.999872,15.66158759,.00014779,97.2853,240.6371,88.7498,239.4306,0,U,69707,999,496,-.28230856E-1,-.2524185E-1,0
STARLINK-37972,2026-147E,2026-07-22T20:00:01.999872,15.77836723,.00013143,97.2841,240.6676,73.2473,325.6787,0,U,69708,999,496,-.16539726E-1,-.2391424E-1,0
STARLINK-37963,2026-147F,2026-07-22T20:00:01.999872,15.65220128,.00013203,97.2848,240.6244,75.0601,224.9369,0,U,69709,999,496,-.17620705E-1,-.1550539E-1,0
STARLINK-37969,2026-147G,2026-07-22T20:00:01.999872,15.63129558,.00014602,97.2852,240.6295,104.6369,199.2110,0,U,69710,999,511,-.29918588E-1,-.2389477E-1,0
STARLINK-37956,2026-147H,2026-07-22T20:00:01.999872,15.60076017,.00016803,97.2852,240.6132,89.7469,182.3966,0,U,69711,999,496,-.34865452E-1,-.2462184E-1,0
STARLINK-38043,2026-147J,2026-07-22T20:00:01.999872,15.76500433,.00016712,97.2843,240.6728,78.2197,334.0167,0,U,69712,999,496,-.18280254E-1,-.2475429E-1,0
STARLINK-38020,2026-147K,2026-07-22T20:00:01.999872,15.61585822,.00014269,97.2847,240.6208,91.4819,199.0581,0,U,69713,999,496,-.32753136E-1,-.2453139E-1,0
STARLINK-38059,2026-147L,2026-07-22T20:00:01.999872,15.60384960,.00016173,97.2849,240.6169,96.9034,183.0076,0,U,69714,999,496,-.33853832E-1,-.2424727E-1,0
STARLINK-38061,2026-147M,2026-07-22T20:00:01.999872,15.64636213,.000149,97.2851,240.6455,79.3937,266.8445,0,U,69715,999,505,-.29893946E-1,-.2515608E-1,0
STARLINK-38060,2026-147N,2026-07-22T20:00:01.999872,15.72720560,.00015248,97.2844,240.6745,71.1703,345.2812,0,U,69716,999,505,-.21485847E-1,-.252418E-1,0
STARLINK-38040,2026-147P,2026-07-22T20:00:01.999872,15.63577099,.00013356,97.2850,240.6462,80.9047,267.0973,0,U,69717,999,505,-.33014785E-1,-.2642941E-1,0
STARLINK-37989,2026-147Q,2026-07-22T20:00:01.999872,15.63503080,.00012332,97.2852,240.6359,75.4337,249.1533,0,U,69718,999,505,-.15845506E-1,-.1304019E-1,0
STARLINK-38039,2026-147R,2026-07-21T13:13:53.019840,15.80885144,.00023584,97.2833,239.3333,67.0568,293.0949,0,U,69719,999,486,.11824531E-2,.23326E-2,0
STARLINK-38003,2026-147S,2026-07-22T20:00:01.999872,15.73373245,.00016583,97.2842,240.6824,66.8460,9.9132,0,U,69720,999,505,-.20899458E-1,-.2468685E-1,0
STARLINK-38014,2026-147T,2026-07-22T20:00:01.999872,15.71885890,.0001631,97.2843,240.6819,67.4426,5.7787,0,U,69721,999,505,-.22293424E-1,-.2527134E-1,0
STARLINK-37915,2026-147U,2026-07-22T20:00:01.999872,15.73923456,.00018789,97.2839,240.6869,65.7649,19.8720,0,U,69722,999,505,-.20370672E-1,-.246524E-1,0
STARLINK-38007,2026-147V,2026-07-22T20:00:01.999872,15.73481778,.00018709,97.2842,240.6806,57.8632,13.9841,0,U,69723,999,505,-.20530003E-1,-.2441598E-1,0
STARLINK-38008,2026-147W,2026-07-22T20:00:01.999872,15.73155533,.00022548,97.2841,240.6916,57.4677,34.7203,0,U,69724,999,505,-.23499243E-1,-.2773065E-1,0
STARLINK-38021,2026-147X,2026-07-22T20:00:01.999872,15.70865602,.00016809,97.2840,240.6844,68.3449,10.2541,0,U,69725,999,505,-.2331397E-1,-.2530695E-1,0
STARLINK-38015,2026-147Y,2026-07-22T20:00:01.999872,15.75227290,.00016243,97.2858,240.6580,81.7525,291.4159,0,U,69726,999,505,-.49445431E-3,-.73372E-3,0
STARLINK-38010,2026-147Z,2026-07-22T13:04:02.413632,15.75297178,.00012964,97.2840,240.2776,71.9030,288.2376,0,U,69727,999,501,.22856809E-2,.3571E-2,0
SXM-11,2026-148A,2026-07-22T17:35:29.747616,1.00271472,.00021113,0.0926,264.4881,191.2930,348.0271,0,U,69728,999,39,0,.14E-6,0
HAIYANG-2E,2026-149A,2026-07-22T23:50:14.462016,13.79299055,.00015362,99.3444,210.8122,82.8829,277.2497,0,U,69737,999,289,.8610691E-5,-.35E-6,0
CZ-4B R/B,2026-149B,2026-07-22T22:58:53.547744,14.30069750,.01978268,99.3220,212.5311,307.6811,50.6570,0,U,69738,999,324,.50302038E-4,.102E-5,0
STARLINK-38033,2026-150A,2026-07-22T19:22:31.937376,15.80829969,.00024449,97.2841,42.6084,99.9818,260.1727,0,U,69739,999,452,.14736396E-2,.29198E-2,0
STARLINK-38076,2026-150B,2026-07-22T12:51:13.647168,15.75254181,.00011595,97.2855,42.2110,24.1271,336.0048,0,U,69740,999,447,.13038108E-2,.199505E-2,0
STARLINK-38074,2026-150C,2026-07-22T01:25:07.882464,15.75295322,.00010526,97.2856,41.7895,49.6779,310.4578,0,U,69741,999,440,.14364827E-2,.220765E-2,0
STARLINK-38041,2026-150D,2026-07-22T19:56:37.047840,15.75298983,.00019678,97.2853,42.5765,88.3507,271.7984,0,U,69742,999,452,.12467461E-2,.190949E-2,0
