STARLINK-37898          
1 69705U 26147B   26203.83335648 -.02484144  00000+0 -33586-1 0  9994
2 69705  97.2849 240.6093 0001590  97.8750 166.2005 15.61308654  4961
STARLINK-37970          
1 69706U 26147C   26203.83335648 -.02417979  00000+0 -33140-1 0  9993
2 69706  97.2851 240.6077 0001660  96.7806 162.8987 15.60853812  4966
STARLINK-37975          
1 69707U 26147D   26203.83335648 -.02524185  00000+0 -28231-1 0  9997
2 69707  97.2853 240.6371 0001477  88.7498 239.4306 15.66158759  4960
STARLINK-37972          
1 69708U 26147E   26203.83335648 -.02391424  00000+0 -16540-1 0  9996
2 69708  97.2841 240.6676 0001314  73.2473 325.6787 15.77836723  4965
STARLINK-37963          
1 69709U 26147F   26203.83335648 -.01550539  00000+0 -17621-1 0  9991
2 69709  97.2848 240.6244 0001320  75.0601 224.9369 15.65220128  4964
STARLINK-37969          
1 69710U 26147G   26203.83335648 -.02389477  00000+0 -29919-1 0  9998
2 69710  97.2852 240.6295 0001460 104.6369 199.2110 15.63129558  5111
STARLINK-37956          
1 69711U 26147H   26203.83335648 -.02462184  00000+0 -34865-1 0  9992
2 69711  97.2852 240.6132 0001680  89.7469 182.3966 15.60076017  4962
STARLINK-38043          
1 69712U 26147J   26203.83335648 -.02475429  00000+0 -18280-1 0  9992
2 69712  97.2843 240.6728 0001671  78.2197 334.0167 15.76500433  4965
STARLINK-38020          
1 69713U 26147K   26203.83335648 -.02453139  00000+0 -32753-1 0  9998
2 69713  97.2847 240.6208 0001426  91.4819 199.0581 15.61585822  4967
STARLINK-38059          
1 69714U 26147L   26203.83335648 -.02424727  00000+0 -33854-1 0  9993
2 69714  97.2849 240.6169 0001617  96.9034 183.0076 15.60384960  4968
STARLINK-38061          
1 69715U 26147M   26203.83335648 -.02515608  00000+0 -29894-1 0  9992
2 69715  97.2851 240.6455 0001490  79.3937 266.8445 15.64636213  5052
STARLINK-38060          
1 69716U 26147N   26203.83335648 -.02524180  00000+0 -21486-1 0  9997
2 69716  97.2844 240.6745 0001524  71.1703 345.2812 15.72720560  5054
STARLINK-38040          
1 69717U 26147P   26203.83335648 -.02642941  00000+0 -33015-1 0  9995
2 69717  97.2850 240.6462 0001335  80.9047 267.0973 15.63577099  5053
STARLINK-37989          
1 69718U 26147Q   26203.83335648 -.01304019  00000+0 -15846-1 0  9998
2 69718  97.2852 240.6359 0001233  75.4337 249.1533 15.63503080  5051
STARLINK-38039          
1 69719U 26147R   26202.55130810  .00233260  00000+0  11825-2 0  9991
2 69719  97.2833 239.3333 0002358  67.0568 293.0949 15.80885144  4860
STARLINK-38003          
1 69720U 26147S   26203.83335648 -.02468685  00000+0 -20899-1 0  9996
2 69720  97.2842 240.6824 0001658  66.8460   9.9132 15.73373245  5058
STARLINK-38014          
1 69721U 26147T   26203.83335648 -.02527134  00000+0 -22293-1 0  9992
2 69721  97.2843 240.6819 0001631  67.4426   5.7787 15.71885890  5056
STARLINK-37915          
1 69722U 26147U   26203.83335648 -.02465240  00000+0 -20371-1 0  9997
2 69722  97.2839 240.6869 0001878  65.7649  19.8720 15.73923456  5054
STARLINK-38007          
1 69723U 26147V   26203.83335648 -.02441598  00000+0 -20530-1 0  9995
2 69723  97.2842 240.6806 0001870  57.8632  13.9841 15.73481778  5051
STARLINK-38008          
1 69724U 26147W   26203.83335648 -.02773065  00000+0 -23499-1 0  9990
2 69724  97.2841 240.6916 0002254  57.4677  34.7203 15.73155533  5055
STARLINK-38021          
1 69725U 26147X   26203.83335648 -.02530695  00000+0 -23314-1 0  9997
2 69725  97.2840 240.6844 0001680  68.3449  10.2541 15.70865602  5051
STARLINK-38015          
1 69726U 26147Y   26203.83335648 -.00073372  00000+0 -49445-3 0  9995
2 69726  97.2858 240.6580 0001624  81.7525 291.4159 15.75227290  5058
STARLINK-38010          
1 69727U 26147Z   26203.54447238  .00357100  00000+0  22857-2 0  9992
2 69727  97.2840 240.2776 0001296  71.9030 288.2376 15.75297178  5013
SXM-11                  
1 69728U 26148A   26203.73298319  .00000014  00000+0  00000+0 0  9991
2 69728   0.0926 264.4881 0002111 191.2930 348.0271  1.00271472   395
HAIYANG-2E              
1 69737U 26149A   26203.99322294 -.00000035  00000+0  86107-5 0  9992
2 69737  99.3444 210.8122 0001536  82.8829 277.2497 13.79299055  2892
CZ-4B R/B               
1 69738U 26149B   26203.95756421  .00000102  00000+0  50302-4 0  9993
2 69738  99.3220 212.5311 0197826 307.6811  50.6570 14.30069750  3241
STARLINK-38033          
1 69739U 26150A   26203.80731409  .00291980  00000+0  14736-2 0  9994
2 69739  97.2841  42.6084 0002444  99.9818 260.1727 15.80829969  4522
STARLINK-38076          
1 69740U 26150B   26203.53557462  .00199505  00000+0  13038-2 0  9995
2 69740  97.2855  42.2110 0001159  24.1271 336.0048 15.75254181  4475
STARLINK-38074          
1 69741U 26150C   26203.05911901  .00220765  00000+0  14365-2 0  9992
2 69741  97.2856  41.7895 0001052  49.6779 310.4578 15.75295322  4407
STARLINK-38041          
1 69742U 26150D   26203.83098435  .00190949  00000+0  12467-2 0  9998
2 69742  97.2853  42.5765 0001967  88.3507 271.7984 15.75298983  4523
